OBJECT_NAME,OBJECT_ID,EPOCH,MEAN_MOTION,ECCENTRICITY,INCLINATION,RA_OF_ASC_NODE,ARG_OF_PERICENTER,MEAN_ANOMALY,EPHEMERIS_TYPE,CLASSIFICATION_TYPE,NORAD_CAT_ID,ELEMENT_SET_NO,REV_AT_EPOCH,BSTAR,MEAN_MOTION_DOT,MEAN_MOTION_DDOT
OSCAR 7 (AO-7),1974-089B,2026-07-10T06:51:38.058624,12.53698448,.00126625,101.9903,204.7731,87.4352,340.9074,0,U,7530,999,36341,.81096817E-4,-.33E-6,0
PHASE 3B (AO-10),1983-058B,2026-07-09T16:55:32.549376,2.05870648,.60033527,25.9319,215.8523,121.8543,310.3469,0,U,14129,999,29595,0,.106E-5,0
UOSAT 2 (UO-11),1984-021B,2026-07-10T18:43:22.315296,14.90842185,.0009177,97.8073,157.0938,103.5627,256.6614,0,U,14781,999,26064,.94506E-4,.875E-5,0
LUSAT (LO-19),1990-005G,2026-07-11T01:01:38.892000,14.34129949,.0012391,98.8847,214.5050,132.7513,227.4716,0,U,20442,999,90581,.32502E-4,.44E-6,0
EYESAT A (AO-27),1993-061C,2026-07-11T04:38:35.546208,14.30948413,.0008978,98.6869,259.5970,36.9146,323.2653,0,U,22825,999,71043,.28428E-4,.3E-6,0
ITAMSAT (IO-26),1993-061D,2026-07-11T03:58:37.668864,14.31375920,.0009193,98.6817,259.4892,20.8495,339.3061,0,U,22826,999,71074,.25651E-4,.23E-6,0
RADIO ROSTO (RS15),1994-085A,2026-07-11T03:37:02.580384,11.27583514,.0156769,64.8159,264.4617,359.4538,0.6192,0,U,23439,999,29860,.2128E-3,-.35E-6,0
JAS-2 (FO-29),1996-046B,2026-07-10T00:12:21.677472,13.53275218,.03505668,98.5223,36.7525,37.3768,325.1213,0,U,24278,999,47625,.43570331E-4,.9E-7,0
TECHSAT 1B (GO-32),1998-043D,2026-07-10T09:14:26.592864,14.24432755,.00020595,99.0081,184.7300,122.4891,237.6486,0,U,25397,999,45463,.30598468E-4,.24E-6,0
ISS (ZARYA),1998-067A,2026-07-11T04:27:35.337024,15.48977198,.0006688,51.6302,181.3206,281.9973,78.0266,0,U,25544,999,57547,.10636E-3,.541E-4,0
PCSAT (NO-44),2001-043C,2026-07-11T04:27:55.660032,14.31964030,.0005966,67.0491,182.1989,266.2748,93.7672,0,U,26931,999,29388,.51329E-4,.55E-6,0
SAUDISAT 1C (SO-50),2002-058C,2026-07-11T00:37:22.327104,14.83093538,.0074652,64.5517,55.2264,258.0491,101.2239,0,U,27607,999,26799,.64019E-4,.39E-5,0
CUTE-1 (CO-55),2003-031E,2026-07-10T00:11:45.746304,14.24349450,.00107182,98.6739,199.2802,116.0719,244.1564,0,U,27844,999,19492,.97602803E-4,.182E-5,0
CUBESAT XI-IV (CO-57),2003-031J,2026-07-10T23:48:33.077664,14.23633076,.001041,98.6772,199.9452,130.5633,229.6453,0,U,27848,999,19476,.76313E-4,.13E-5,0
MOZHAETS 4 (RS22),2003-042A,2026-07-11T04:42:24.962400,14.73510312,.0010884,98.3479,17.2346,186.0666,303.5935,0,U,27939,999,21908,.10185E-3,.608E-5,0
CUBESAT XI-V,2005-043F,2026-07-10T08:49:55.529184,14.72694805,.00150968,98.3010,347.4805,129.3634,230.8913,0,U,28895,999,10516,.14886521E-3,.898E-5,0
CUTE-1.7+APD II (CO-65),2008-021C,2026-07-11T04:16:10.883136,15.09676401,.0007336,97.8285,174.1007,315.7430,44.3211,0,U,32785,999,98881,.20044E-3,.3162E-4,0
SEEDS II (CO-66),2008-021J,2026-07-10T10:27:44.320896,15.33559548,.0002534,97.7526,190.4573,167.6964,192.4340,0,U,32791,999,99085,.41058285E-3,.13245E-3,0
YUBILEINY (RS30),2008-025A,2026-07-11T03:52:25.423968,12.43180753,.0018553,82.5055,340.5258,258.3917,101.5080,0,U,32953,999,82267,.43061E-3,.7E-6,0
KKS-1 (KISEKI),2009-002H,2026-07-11T04:57:32.275584,14.83183418,.00071,98.1178,115.0295,202.5926,157.4975,0,U,33499,999,93975,.91609E-4,.692E-5,0
SWISSCUBE,2009-051B,2026-07-11T04:23:14.980128,14.62526269,.0007656,98.4014,100.4874,129.8333,230.3542,0,U,35932,999,89266,.1145E-3,.531E-5,0
BEESAT-1,2009-051C,2026-07-11T04:54:53.661600,14.61758109,.0005911,98.3941,100.0947,140.2385,219.9249,0,U,35933,999,89269,.97507E-4,.437E-5,0
ITUPSAT1,2009-051E,2026-07-10T04:32:15.089856,14.60474362,.00077396,98.4025,98.2308,157.5053,202.6487,0,U,35935,999,89209,.10252703E-3,.448E-5,0
XIWANG-1 (HOPE-1),2009-072B,2026-07-11T04:24:23.378688,13.16438648,.0007401,100.4029,145.6333,173.6926,186.4281,0,U,36122,999,79616,-.72839E-3,-.323E-5,0
O/OREOS (USA 219),2010-062C,2026-07-09T23:09:45.136800,14.93839355,.00136796,71.9708,28.7386,15.3805,344.7778,0,U,37224,999,12004,.1364878E-3,.1388E-4,0
JUGNU,2011-058B,2026-07-11T05:36:35.871264,14.13782829,.0018443,19.9591,162.3323,342.6467,134.7204,0,U,37839,999,76243,.48953E-4,.361E-5,0
SRMSAT,2011-058D,2026-07-10T06:11:51.124704,14.11580397,.00118704,19.9719,279.8299,97.3618,287.0554,0,U,37841,999,76108,.48960392E-4,.355E-5,0
STRAND-1,2013-009E,2026-07-10T10:46:18.460128,14.37177134,.00091491,98.3931,11.1117,154.2343,205.9301,0,U,39090,999,70040,.73430578E-4,.176E-5,0
ZACUBE-1 (TSHEPISOSAT),2013-066B,2026-07-11T04:51:19.576224,15.01317932,.0043797,97.8013,154.6584,168.0001,192.2277,0,U,39417,999,68433,.11848E-3,.1491E-4,0
GOMX-1,2013-066Q,2026-07-11T03:41:44.038752,14.69536877,.0128697,97.6478,31.1045,1.2098,358.9396,0,U,39430,999,67343,.15616E-3,.1E-4,0
